ORBCOMM FM20            
1 25416U 98046D   25013.77491738  .00001332  00000+0  49645-3 0  9991
2 25416  44.9928 192.2265 0001357 181.3349 178.7495 14.36598990382051
ORBCOMM FM16            
1 25417U 98046E   25014.08165324  .00002069  00000+0  72331-3 0  9992
2 25417  44.9914 184.2453 0004933 225.4808 134.5638 14.38054321382281
ORBCOMM FM14            
1 25419U 98046G   25013.79718267  .00001742  00000+0  61662-3 0  9993
2 25419  44.9933 188.9453 0003575 211.5851 148.4783 14.38033414381981
ORBCOMM FM13            
1 25420U 98046H   25013.85502033  .00001579  00000+0  57548-3 0  9990
2 25420  44.9960 195.2385 0005403 211.4926 148.5599 14.36963502381032
ORBCOMM FM21            
1 25475U 98053A   25013.90017424  .00001306  00000+0  48637-3 0  9996
2 25475  45.0085 279.8424 0000336  87.3115 272.7772 14.36749361375058
ORBCOMM FM22            
1 25476U 98053B   25013.90113196  .00001699  00000+0  60779-3 0  9996
2 25476  45.0071 275.8366 0002071 151.3346 208.7616 14.37604555375064
ORBCOMM FM23            
1 25477U 98053C   25014.12586707  .00001430  00000+0  52678-3 0  9996
2 25477  45.0085 281.0789 0001162 141.8514 218.2416 14.36867648375549
